[{"OBJECT_NAME":"STARLINK-1151","OBJECT_ID":"2020-006AP","EPOCH":"2026-03-09T21:23:38.478048","MEAN_MOTION":15.65402001,"ECCENTRICITY":9.046e-5,"INCLINATION":53.0533,"RA_OF_ASC_NODE":238.7978,"ARG_OF_PERICENTER":30.6278,"MEAN_ANOMALY":329.4789,"EPHEMERIS_TYPE":0,"CLASSIFICATION_TYPE":"U","NORAD_CAT_ID":45081,"ELEMENT_SET_NO":999,"REV_AT_EPOCH":33715,"BSTAR":0.00065977632,"MEAN_MOTION_DOT":0.00067074,"MEAN_MOTION_DDOT":0},{"OBJECT_NAME":"PSLV R\/B","OBJECT_ID":"2022-013D","EPOCH":"2026-03-09T16:30:06.230304","MEAN_MOTION":15.6423675,"ECCENTRICITY":0.00125272,"INCLINATION":97.4518,"RA_OF_ASC_NODE":121.4885,"ARG_OF_PERICENTER":118.9618,"MEAN_ANOMALY":241.2898,"EPHEMERIS_TYPE":0,"CLASSIFICATION_TYPE":"U","NORAD_CAT_ID":51659,"ELEMENT_SET_NO":999,"REV_AT_EPOCH":22709,"BSTAR":0.00053235424,"MEAN_MOTION_DOT":0.00050953,"MEAN_MOTION_DDOT":0}]
